{
    "links": {
        "self": "http://www.neowsapp.com/rest/v1/neo/3797853?api_key=iIulBulltgU6a56xZRHN4H3l9WmuAYTsLGpBGhQ2"
    },
    "id": "3797853",
    "neo_reference_id": "3797853",
    "name": "(2018 BE3)",
    "designation": "2018 BE3",
    "nasa_jpl_url": "http://ssd.jpl.nasa.gov/sbdb.cgi?sstr=3797853",
    "absolute_magnitude_h": 24.9,
    "estimated_diameter": {
        "kilometers": {
            "estimated_diameter_min": 0.0278326768,
            "estimated_diameter_max": 0.0622357573
        },
        "meters": {
            "estimated_diameter_min": 27.8326768072,
            "estimated_diameter_max": 62.2357573367
        },
        "miles": {
            "estimated_diameter_min": 0.0172944182,
            "estimated_diameter_max": 0.0386714948
        },
        "feet": {
            "estimated_diameter_min": 91.3145593761,
            "estimated_diameter_max": 204.1855621004
        }
    },
    "is_potentially_hazardous_asteroid": false,
    "close_approach_data": [
        {
            "close_approach_date": "1918-06-20",
            "close_approach_date_full": "1918-Jun-20 10:10",
            "epoch_date_close_approach": -1626270600000,
            "relative_velocity": {
                "kilometers_per_second": "14.1291702926",
                "kilometers_per_hour": "50865.0130533233",
                "miles_per_hour": "31605.5410274941"
            },
            "miss_distance": {
                "astronomical": "0.0986435564",
                "lunar": "38.3723434396",
                "kilometers": "14756865.926664868",
                "miles": "9169491.2918684584"
            },
            "orbiting_body": "Mars"
        },
        {
            "close_approach_date": "2018-01-29",
            "close_approach_date_full": "2018-Jan-29 21:29",
            "epoch_date_close_approach": 1517261340000,
            "relative_velocity": {
                "kilometers_per_second": "4.1787509925",
                "kilometers_per_hour": "15043.5035731518",
                "miles_per_hour": "9347.4480952176"
            },
            "miss_distance": {
                "astronomical": "0.1083735751",
                "lunar": "42.1573207139",
                "kilometers": "16212455.999245037",
                "miles": "10073953.0225220306"
            },
            "orbiting_body": "Earth"
        }
    ],
    "orbital_data": {
        "orbit_id": "7",
        "orbit_determination_date": "2018-02-11 06:24:33",
        "first_observation_date": "2018-01-20",
        "last_observation_date": "2018-02-10",
        "data_arc_in_days": 21,
        "observations_used": 42,
        "orbit_uncertainty": "7",
        "minimum_orbit_intersection": ".104893",
        "jupiter_tisserand_invariant": "3.736",
        "epoch_osculation": "2459000.5",
        "eccentricity": ".4493500618354465",
        "semi_major_axis": "1.974490689767683",
        "inclination": "1.378801202115809",
        "ascending_node_longitude": "64.10610453798138",
        "orbital_period": "1013.400378754144",
        "perihelion_distance": "1.087253176227062",
        "perihelion_argument": "62.98830910032539",
        "aphelion_distance": "2.861728203308306",
        "perihelion_time": "2459160.523988981015",
        "mean_anomaly": "303.1531335088029",
        "mean_motion": ".3552396540867466",
        "equinox": "J2000",
        "orbit_class": {
            "orbit_class_type": "AMO",
            "orbit_class_description": "Near-Earth asteroid orbits similar to that of 1221 Amor",
            "orbit_class_range": "1.017 AU < q (perihelion) < 1.3 AU"
        }
    },
    "is_sentry_object": false
}